22275,NAVSTAR 29 (USA 87),1992,764.95,-1.0,-,54.93,Inactive,0,MEO,USA,USA,Unknown,Unknown,Unknown,1 22275U 92089A   25103.12820593  .00000066  00000+0  00000+0 0  9997,2 22275  54.9252 143.1935 0070143  74.1695   5.6293  1.88246840228783,1.8824684,0.0070143,MEO
22581,NAVSTAR 31 (USA 90),1993,762.12,-1.0,-,54.52,Inactive,0,MEO,USA,USA,Unknown,Unknown,Unknown,1 22581U 93017A   25103.42123534 -.00000065  00000+0  00000+0 0  9993,2 22581  54.5201 313.6269 0003234  87.7028  93.9557  1.88946507 81062,1.88946507,0.0003234,MEO
22657,NAVSTAR 32 (USA 91),1993,767.2,-1.0,-,53.92,Inactive,0,MEO,USA,USA,Unknown,Unknown,Unknown,1 22657U 93032A   25102.55212352 -.00000052  00000+0  00000+0 0  9990,2 22657  53.9177 296.1214 0040444  83.5167 286.4643  1.87695956225825,1.87695956,0.0040444,MEO
22700,NAVSTAR 33 (USA 92),1993,760.17,-1.0,-,54.71,Inactive,0,MEO,USA,USA,Unknown,Unknown,Unknown,1 22700U 93042A   25102.51372424  .00000024  00000+0  00000+0 0  9991,2 22700  54.7065 183.9321 0010959  24.6287  16.5567  1.89432187228971,1.89432187,0.0010959,MEO
22779,NAVSTAR 34 (USA 94),1993,761.38,-1.0,-,53.43,Inactive,0,MEO,USA,USA,Unknown,Unknown,Unknown,1 22779U 93054A   25102.10687038 -.00000033  00000+0  00000+0 0  9996,2 22779  53.4333 233.4059 0051227 246.5713 113.0895  1.89129790227870,1.8912979,0.0051227,MEO
22877,NAVSTAR 35 (USA 96),1993,763.76,-1.0,-,55.56,Inactive,0,MEO,USA,USA,Unknown,Unknown,Unknown,1 22877U 93068A   25102.67995263 -.00000105  00000+0  00000+0 0  9994,2 22877  55.5585 352.3201 0007905 120.1673 249.6689  1.88541171228347,1.88541171,0.0007905,MEO
23027,NAVSTAR 36 (USA 100),1994,771.4,-1.0,-,53.5,Inactive,0,MEO,USA,USA,Unknown,Unknown,Unknown,1 23027U 94016A   25103.13184920 -.00000047  00000+0  00000+0 0  9993,2 23027  53.5039 289.4397 0032805 209.4762 354.1374  1.86674785225199,1.86674785,0.0032805,MEO
23833,NAVSTAR 37 (USA 117),1996,739.91,-1.0,-,53.17,Inactive,0,MEO,USA,USA,Unknown,Unknown,Unknown,1 23833U 96019A   25102.64816800 -.00000044  00000+0  00000+0 0  9994,2 23833  53.1739 282.2109 0008964  18.5265 177.6003  1.94619262 74383,1.94619262,0.0008964,MEO
23953,NAVSTAR 38 (USA 126),1996,763.13,-1.0,-,55.64,Inactive,0,MEO,USA,USA,Unknown,Unknown,Unknown,1 23953U 96041A   25102.20253178 -.00000053  00000+0  00000+0 0  9997,2 23953  55.6398  61.5145 0060539 101.9420  80.4863  1.88695779206650,1.88695779,0.0060539,MEO
24320,NAVSTAR 39 (USA 128),1996,772.12,-1.0,-,53.94,Inactive,0,MEO,USA,USA,Unknown,Unknown,Unknown,1 24320U 96056A   25102.57643506 -.00000034  00000+0  00000+0 0  9999,2 24320  53.9413 251.8446 0028630 207.4479 150.4004  1.86499284202458,1.86499284,0.002863,MEO
25030,NAVSTAR 44 (USA 135),1997,764.18,-1.0,-,55.6,Inactive,0,MEO,USA,USA,Unknown,Unknown,Unknown,1 25030U 97067A   25099.47591956 -.00000024  00000+0  00000+0 0  9995,2 25030  55.5983 188.0752 0020120 255.7563  97.3033  1.88437770198510,1.8843777,0.002012,MEO
24876,NAVSTAR 43 (USA 132),1997,717.98,2217.0,+,55.78,Active,1,MEO,USA,USA,Commercial/Military,Navigation (Global or Regional Positioning),Delta,1 24876U 97035A   25103.42455861  .00000050  00000+0  00000+0 0  9990,2 24876  55.7813 115.3861 0088395  53.7039 307.1521  2.00562651203330,2.00562651,0.0088395,MEO
