[
    {
        "OBJECT_NAME": "NAVSTAR 29 (USA 87)",
        "OBJECT_ID": "1992-089A",
        "EPOCH": "2025-04-13T03:04:36.992352",
        "MEAN_MOTION": 1.8824684,
        "ECCENTRICITY": 0.0070143,
        "INCLINATION": 54.9252,
        "RA_OF_ASC_NODE": 143.1935,
        "ARG_OF_PERICENTER": 74.1695,
        "MEAN_ANOMALY": 5.6293,
        "EPHEMERIS_TYPE": 0,
        "CLASSIFICATION_TYPE": "U",
        "NORAD_CAT_ID": 22275,
        "ELEMENT_SET_NO": 999,
        "REV_AT_EPOCH": 22878,
        "BSTAR": 0,
        "MEAN_MOTION_DOT": 6.6e-07,
        "MEAN_MOTION_DDOT": 0
    },
    {
        "OBJECT_NAME": "NAVSTAR 31 (USA 90)",
        "OBJECT_ID": "1993-017A",
        "EPOCH": "2025-04-13T10:06:34.733376",
        "MEAN_MOTION": 1.88946507,
        "ECCENTRICITY": 0.0003234,
        "INCLINATION": 54.5201,
        "RA_OF_ASC_NODE": 313.6269,
        "ARG_OF_PERICENTER": 87.7028,
        "MEAN_ANOMALY": 93.9557,
        "EPHEMERIS_TYPE": 0,
        "CLASSIFICATION_TYPE": "U",
        "NORAD_CAT_ID": 22581,
        "ELEMENT_SET_NO": 999,
        "REV_AT_EPOCH": 8106,
        "BSTAR": 0,
        "MEAN_MOTION_DOT": -6.5e-07,
        "MEAN_MOTION_DDOT": 0
    },
    {
        "OBJECT_NAME": "NAVSTAR 32 (USA 91)",
        "OBJECT_ID": "1993-032A",
        "EPOCH": "2025-04-12T13:15:03.472128",
        "MEAN_MOTION": 1.87695956,
        "ECCENTRICITY": 0.0040444,
        "INCLINATION": 53.9177,
        "RA_OF_ASC_NODE": 296.1214,
        "ARG_OF_PERICENTER": 83.5167,
        "MEAN_ANOMALY": 286.4643,
        "EPHEMERIS_TYPE": 0,
        "CLASSIFICATION_TYPE": "U",
        "NORAD_CAT_ID": 22657,
        "ELEMENT_SET_NO": 999,
        "REV_AT_EPOCH": 22582,
        "BSTAR": 0,
        "MEAN_MOTION_DOT": -5.2e-07,
        "MEAN_MOTION_DDOT": 0
    },
    {
        "OBJECT_NAME": "NAVSTAR 33 (USA 92)",
        "OBJECT_ID": "1993-042A",
        "EPOCH": "2025-04-12T12:19:45.774336",
        "MEAN_MOTION": 1.89432187,
        "ECCENTRICITY": 0.0010959,
        "INCLINATION": 54.7065,
        "RA_OF_ASC_NODE": 183.9321,
        "ARG_OF_PERICENTER": 24.6287,
        "MEAN_ANOMALY": 16.5567,
        "EPHEMERIS_TYPE": 0,
        "CLASSIFICATION_TYPE": "U",
        "NORAD_CAT_ID": 22700,
        "ELEMENT_SET_NO": 999,
        "REV_AT_EPOCH": 22897,
        "BSTAR": 0,
        "MEAN_MOTION_DOT": 2.4e-07,
        "MEAN_MOTION_DDOT": 0
    },
    {
        "OBJECT_NAME": "NAVSTAR 34 (USA 94)",
        "OBJECT_ID": "1993-054A",
        "EPOCH": "2025-04-12T02:33:53.600832",
        "MEAN_MOTION": 1.8912979,
        "ECCENTRICITY": 0.0051227,
        "INCLINATION": 53.4333,
        "RA_OF_ASC_NODE": 233.4059,
        "ARG_OF_PERICENTER": 246.5713,
        "MEAN_ANOMALY": 113.0895,
        "EPHEMERIS_TYPE": 0,
        "CLASSIFICATION_TYPE": "U",
        "NORAD_CAT_ID": 22779,
        "ELEMENT_SET_NO": 999,
        "REV_AT_EPOCH": 22787,
        "BSTAR": 0,
        "MEAN_MOTION_DOT": -3.3e-07,
        "MEAN_MOTION_DDOT": 0
    },
    {
        "OBJECT_NAME": "NAVSTAR 35 (USA 96)",
        "OBJECT_ID": "1993-068A",
        "EPOCH": "2025-04-12T16:19:07.907232",
        "MEAN_MOTION": 1.88541171,
        "ECCENTRICITY": 0.0007905,
        "INCLINATION": 55.5585,
        "RA_OF_ASC_NODE": 352.3201,
        "ARG_OF_PERICENTER": 120.1673,
        "MEAN_ANOMALY": 249.6689,
        "EPHEMERIS_TYPE": 0,
        "CLASSIFICATION_TYPE": "U",
        "NORAD_CAT_ID": 22877,
        "ELEMENT_SET_NO": 999,
        "REV_AT_EPOCH": 22834,
        "BSTAR": 0,
        "MEAN_MOTION_DOT": -1.05e-06,
        "MEAN_MOTION_DDOT": 0
    },
    {
        "OBJECT_NAME": "NAVSTAR 36 (USA 100)",
        "OBJECT_ID": "1994-016A",
        "EPOCH": "2025-04-13T03:09:51.770880",
        "MEAN_MOTION": 1.86674785,
        "ECCENTRICITY": 0.0032805,
        "INCLINATION": 53.5039,
        "RA_OF_ASC_NODE": 289.4397,
        "ARG_OF_PERICENTER": 209.4762,
        "MEAN_ANOMALY": 354.1374,
        "EPHEMERIS_TYPE": 0,
        "CLASSIFICATION_TYPE": "U",
        "NORAD_CAT_ID": 23027,
        "ELEMENT_SET_NO": 999,
        "REV_AT_EPOCH": 22519,
        "BSTAR": 0,
        "MEAN_MOTION_DOT": -4.7e-07,
        "MEAN_MOTION_DDOT": 0
    },
    {
        "OBJECT_NAME": "NAVSTAR 37 (USA 117)",
        "OBJECT_ID": "1996-019A",
        "EPOCH": "2025-04-12T15:33:21.715200",
        "MEAN_MOTION": 1.94619262,
        "ECCENTRICITY": 0.0008964,
        "INCLINATION": 53.1739,
        "RA_OF_ASC_NODE": 282.2109,
        "ARG_OF_PERICENTER": 18.5265,
        "MEAN_ANOMALY": 177.6003,
        "EPHEMERIS_TYPE": 0,
        "CLASSIFICATION_TYPE": "U",
        "NORAD_CAT_ID": 23833,
        "ELEMENT_SET_NO": 999,
        "REV_AT_EPOCH": 7438,
        "BSTAR": 0,
        "MEAN_MOTION_DOT": -4.4e-07,
        "MEAN_MOTION_DDOT": 0
    },
    {
        "OBJECT_NAME": "NAVSTAR 38 (USA 126)",
        "OBJECT_ID": "1996-041A",
        "EPOCH": "2025-04-12T04:51:38.745792",
        "MEAN_MOTION": 1.88695779,
        "ECCENTRICITY": 0.0060539,
        "INCLINATION": 55.6398,
        "RA_OF_ASC_NODE": 61.5145,
        "ARG_OF_PERICENTER": 101.942,
        "MEAN_ANOMALY": 80.4863,
        "EPHEMERIS_TYPE": 0,
        "CLASSIFICATION_TYPE": "U",
        "NORAD_CAT_ID": 23953,
        "ELEMENT_SET_NO": 999,
        "REV_AT_EPOCH": 20665,
        "BSTAR": 0,
        "MEAN_MOTION_DOT": -5.3e-07,
        "MEAN_MOTION_DDOT": 0
    },
    {
        "OBJECT_NAME": "NAVSTAR 39 (USA 128)",
        "OBJECT_ID": "1996-056A",
        "EPOCH": "2025-04-12T13:50:03.989184",
        "MEAN_MOTION": 1.86499284,
        "ECCENTRICITY": 0.002863,
        "INCLINATION": 53.9413,
        "RA_OF_ASC_NODE": 251.8446,
        "ARG_OF_PERICENTER": 207.4479,
        "MEAN_ANOMALY": 150.4004,
        "EPHEMERIS_TYPE": 0,
        "CLASSIFICATION_TYPE": "U",
        "NORAD_CAT_ID": 24320,
        "ELEMENT_SET_NO": 999,
        "REV_AT_EPOCH": 20245,
        "BSTAR": 0,
        "MEAN_MOTION_DOT": -3.4e-07,
        "MEAN_MOTION_DDOT": 0
    },
    {
        "OBJECT_NAME": "NAVSTAR 43 (USA 132)",
        "OBJECT_ID": "1997-035A",
        "EPOCH": "2025-04-13T10:11:21.863904",
        "MEAN_MOTION": 2.00562651,
        "ECCENTRICITY": 0.0088395,
        "INCLINATION": 55.7813,
        "RA_OF_ASC_NODE": 115.3861,
        "ARG_OF_PERICENTER": 53.7039,
        "MEAN_ANOMALY": 307.1521,
        "EPHEMERIS_TYPE": 0,
        "CLASSIFICATION_TYPE": "U",
        "NORAD_CAT_ID": 24876,
        "ELEMENT_SET_NO": 999,
        "REV_AT_EPOCH": 20333,
        "BSTAR": 0,
        "MEAN_MOTION_DOT": 5e-07,
        "MEAN_MOTION_DDOT": 0
    },
    {
        "OBJECT_NAME": "NAVSTAR 44 (USA 135)",
        "OBJECT_ID": "1997-067A",
        "EPOCH": "2025-04-09T11:25:19.449984",
        "MEAN_MOTION": 1.8843777,
        "ECCENTRICITY": 0.002012,
        "INCLINATION": 55.5983,
        "RA_OF_ASC_NODE": 188.0752,
        "ARG_OF_PERICENTER": 255.7563,
        "MEAN_ANOMALY": 97.3033,
        "EPHEMERIS_TYPE": 0,
        "CLASSIFICATION_TYPE": "U",
        "NORAD_CAT_ID": 25030,
        "ELEMENT_SET_NO": 999,
        "REV_AT_EPOCH": 19851,
        "BSTAR": 0,
        "MEAN_MOTION_DOT": -2.4e-07,
        "MEAN_MOTION_DDOT": 0
    }
]